[{"OBJECT_NAME":"SUPERVIEW-1 03","OBJECT_ID":"2018-002A","EPOCH":"2026-03-09T22:14:33.880992","MEAN_MOTION":15.35916978,"ECCENTRICITY":0.00509393,"INCLINATION":97.3162,"RA_OF_ASC_NODE":154.1458,"ARG_OF_PERICENTER":177.0269,"MEAN_ANOMALY":183.1288,"EPHEMERIS_TYPE":0,"CLASSIFICATION_TYPE":"U","NORAD_CAT_ID":43099,"ELEMENT_SET_NO":999,"REV_AT_EPOCH":45311,"BSTAR":0.00062641306,"MEAN_MOTION_DOT":0.00022818,"MEAN_MOTION_DDOT":0},{"OBJECT_NAME":"STARLINK-32822","OBJECT_ID":"2025-022Q","EPOCH":"2026-03-09T10:55:54.958080","MEAN_MOTION":15.30183838,"ECCENTRICITY":0.00012898,"INCLINATION":53.1576,"RA_OF_ASC_NODE":130.749,"ARG_OF_PERICENTER":74.9988,"MEAN_ANOMALY":285.1156,"EPHEMERIS_TYPE":0,"CLASSIFICATION_TYPE":"U","NORAD_CAT_ID":62868,"ELEMENT_SET_NO":999,"REV_AT_EPOCH":6186,"BSTAR":0.00051600389,"MEAN_MOTION_DOT":0.00014947,"MEAN_MOTION_DDOT":0}]
